HULIANWANG DIGUI 13A    
1 66412U 25258A   25343.13384860  .00000527  00000+0  32048-3 0  9994
2 66412  50.0057 277.2127 0004589 347.8692  12.2108 14.19925548  4142
HULIANWANG DIGUI 13B    
1 66413U 25258B   25343.35465348  .00000788  00000+0  44989-3 0  9996
2 66413  50.0063 276.3756 0006410 353.6698   6.4131 14.18998764  4177
HULIANWANG DIGUI 13C    
1 66414U 25258C   25343.13973457  .00000711  00000+0  41184-3 0  9998
2 66414  50.0081 277.2503 0004706 342.5024  17.5724 14.19246085  4145
HULIANWANG DIGUI 13D    
1 66415U 25258D   25343.13185735  .00000662  00000+0  38203-3 0  9996
2 66415  50.0116 277.2068 0004771   0.2986 359.7928 14.20116062  4148
HULIANWANG DIGUI 13E    
1 66416U 25258E   25343.34883707  .00000840  00000+0  47174-3 0  9999
2 66416  50.0045 276.3517 0003927 345.3839  14.6958 14.19348736  4177
HULIANWANG DIGUI 13F    
1 66417U 25258F   25343.34692928  .00000716  00000+0  41164-3 0  9998
2 66417  49.9994 276.3221 0003281 337.0094  23.0670 14.19543360  4179
HULIANWANG DIGUI 13G    
1 66418U 25258G   25343.41161654  .00000587  00000+0  34781-3 0  9997
2 66418  50.0018 275.9967 0004764 355.5056   4.5812 14.19995679  4189
HULIANWANG DIGUI 13H    
1 66419U 25258H   25342.62362054  .00097774  00000+0  24249-2 0  9998
2 66419  53.1596 125.9585 0001250  98.9072 261.2074 15.39596954  8045
HULIANWANG DIGUI 13J    
1 66420U 25258J   25343.33768554  .00000542  00000+0  32523-3 0  9996
2 66420  50.0013 276.2845 0002833 351.7519   8.3346 14.20271341  4160
CZ-12 R/B               
1 66421U 25258K   25343.81002758  .00000324  00000+0  14504-3 0  9994
2 66421  49.9957 270.6602 0064543 238.8620 120.5960 14.42322931  4309
STARLINK-35617          
1 66422U 25259A   25343.50845212  .00086728  00000+0  20546-2 0  9996
2 66422  43.0035  66.7321 0001039 134.0359 226.0583 15.40777762  5669
STARLINK-35618          
1 66423U 25259B   25344.28415082  .00089132  00000+0  21116-2 0  9997
2 66423  43.0014  62.2322 0001800 246.4402 113.6265 15.40764820  5784
STARLINK-35588          
1 66424U 25259C   25344.21708181  .00083985  00000+0  19923-2 0  9999
2 66424  43.0001  62.5875 0001289 251.1011 108.9706 15.40752434  5771
STARLINK-35555          
1 66425U 25259D   25343.63138153  .00063403  00000+0  15088-2 0  9992
2 66425  42.9991  65.9288 0000423 227.8400 132.2421 15.40774478  5680
STARLINK-35589          
1 66426U 25259E   25344.00002315  .00030062  00000+0  72512-3 0  9996
2 66426  43.0010  63.7772 0001388 267.7195 351.8929 15.40656297  5831
STARLINK-35611          
1 66427U 25259F   25344.00002315  .00028986  00000+0  69946-3 0  9996
2 66427  43.0010  63.7457 0001392 274.4381 357.6146 15.40658791  5835
STARLINK-35610          
1 66428U 25259G   25344.00002315  .00072867  00000+0  17417-2 0  9999
2 66428  43.0009  63.7155 0001624 247.0402  37.5595 15.40584058  5833
STARLINK-35533          
1 66429U 25259H   25344.27070572  .00079643  00000+0  18891-2 0  9995
2 66429  42.9999  62.1246 0000358 312.8961  47.1866 15.40778112  5786
STARLINK-35470          
1 66430U 25259J   25344.25002315  .00072820  00000+0  17357-2 0  9991
2 66430  43.0004  62.2159 0001170 256.6786   0.8196 15.40669275  5875
STARLINK-35439          
1 66431U 25259K   25344.25002315  .00082250  00000+0  19607-2 0  9990
2 66431  43.0005  62.1831 0001168 291.9866 338.1264 15.40613996  5873
STARLINK-35446          
1 66432U 25259L   25344.25002315  .00078751  00000+0  18779-2 0  9991
2 66432  43.0002  62.1523 0001094 264.8423  17.7026 15.40621938  5876
STARLINK-35457          
1 66433U 25259M   25344.25002315  .00078136  00000+0  18635-2 0  9990
2 66433  43.0001  62.1230 0001197 265.1045  29.8770 15.40620858  5879
STARLINK-35389          
1 66434U 25259N   25344.25002315 -.00129765  00000+0 -31474-2 0  9994
2 66434  43.0000  62.0917 0001142 267.4487  40.0177 15.40746950  5884
STARLINK-35502          
1 66435U 25259P   25344.25002315  .00073965  00000+0  17654-2 0  9997
2 66435  43.0001  62.0629 0001033 283.7574  36.1129 15.40621332  5882
STARLINK-35501          
1 66436U 25259Q   25344.25002315  .00069585  00000+0  16615-2 0  9997
2 66436  42.9999  62.0011 0000978 268.8785  75.8556 15.40635034  5885
STARLINK-35474          
1 66437U 25259R   25344.25002315  .00071085  00000+0  16969-2 0  9998
2 66437  42.9998  61.9699 0001353 268.0500  89.1232 15.40633265  5883
STARLINK-34681          
1 66438U 25259S   25344.25002315 -.00069955  00000+0 -16819-2 0  9998
2 66438  43.0002  61.9403 0001131 285.1427  84.4312 15.40715332  5778
STARLINK-35327          
1 66439U 25259T   25344.25002315 -.00046964  00000+0 -11232-2 0  9998
2 66439  43.0001  62.0324 0000687 250.5725  81.6566 15.40719988  5887
STARLINK-35405          
1 66440U 25259U   25344.25002315 -.00178664  00000+0 -43591-2 0  9996
2 66440  43.0003  61.9112 0001526 268.8365 113.1513 15.40778599  5885
STARLINK-35426          
1 66441U 25259V   25344.25002315 -.02303976  00000+0 -57927-1 0  9992
2 66441  43.0004  61.8842 0001571 267.3049 125.8844 15.42606673  5881
STARLINK-34724          
1 66442U 25259W   25344.25002315 -.01959146  00000+0 -47351-1 0  9998
2 66442  43.0009  61.8602 0001427 282.2031 120.8762 15.43767618  5880
STARLINK-35219          
1 66443U 25259X   25344.25002315 -.02044447  00000+0 -47414-1 0  9999
2 66443  43.0003  61.8398 0001316 268.8685 142.6491 15.45119562  5779
STARLINK-35360          
1 66444U 25259Y   25343.59350596  .00107686  00000+0  18101-2 0  9996
2 66444  43.0004  65.6336 0003008 269.9974  90.0542 15.50671448  5683
STARLINK-34698          
1 66445U 25259Z   25344.25002315 -.02040488  00000+0 -45175-1 0  9994
2 66445  43.0011  61.8220 0001344 269.9261 148.6112 15.46449762  5772
STARLINK-34986          
1 66446U 25259AA  25343.59384297  .00143221  00000+0  23987-2 0  9996
2 66446  42.9993  65.6360 0002711 273.1662  86.8888 15.50623850  5688
STARLINK-34851          
1 66447U 25259AB  25344.23731622  .00104412  00000+0  17574-2 0  9991
2 66447  42.9984  61.8661 0001321 284.8329  75.2384 15.50651186  5671
STARLINK-35355          
1 66448U 25259AC  25344.23697216  .00160806  00000+0  26821-2 0  9996
2 66448  43.0012  61.8623 0002165 264.5818  95.4795 15.50671091  5788
STARLINK-34720          
1 66449U 25259AD  25343.59247993  .00096197  00000+0  16251-2 0  9995
2 66449  42.9996  65.6255 0001466 272.0350  88.0342 15.50585040  5570
STARLINK-35334          
1 66450U 25259AE  25344.23628702  .00115588  00000+0  19416-2 0  9992
2 66450  42.9962  61.8553 0000223 280.5315  79.5519 15.50658961  5786
VIASAT-3 F2             
1 66454U 25261A   25342.50781694 -.00000081  00000+0  00000+0 0  9995
2 66454   5.4570 292.6501 2279215 190.5469 204.5187  2.19142646   557
ATLAS 5 CENTAUR R/B     
1 66455U 25261B   25344.27862940 -.00000080  00000+0  00000+0 0  9995
2 66455   6.1488 291.8627 2329500 185.9895 282.3500  2.28259697   590
STARLINK-35643          
1 66456U 25262A   25344.25002315  .00104048  00000+0  24712-2 0  9994
2 66456  43.0000  85.9569 0001185 276.7564  88.8099 15.40614679  5235
STARLINK-35466          
1 66457U 25262B   25344.25002315  .00136313  00000+0  32223-2 0  9991
2 66457  43.0001  85.8960 0000976 288.4008 102.0483 15.40607894  5238
STARLINK-35684          
1 66458U 25262C   25344.25002315  .00133653  00000+0  31655-2 0  9994
2 66458  42.9999  85.9252 0001337 283.6946  94.2854 15.40561239  5234
STARLINK-35449          
1 66459U 25262D   25344.25002315  .00142291  00000+0  33612-2 0  9998
2 66459  43.0000  85.8644 0001218 254.7398 148.1485 15.40603240  5230
STARLINK-35424          
1 66460U 25262E   25344.25002315  .00135158  00000+0  31944-2 0  9990
2 66460  43.0003  85.8342 0001516 263.1249 152.1800 15.40619049  5230
STARLINK-35132          
1 66461U 25262F   25344.25002315  .00006223  00000+0  15611-3 0  9995
2 66461  43.0003  85.8042 0001944 282.5861 145.0842 15.40702340  5232
STARLINK-35499          
1 66462U 25262G   25344.25002315  .00087125  00000+0  20743-2 0  9997
2 66462  43.0002  85.7728 0001502 261.6413 178.5511 15.40626104  5230
STARLINK-35463          
1 66463U 25262H   25344.25002315 -.02499487  00000+0 -63146-1 0  9993
2 66463  43.0005  85.7163 0001421 286.8416 176.8464 15.42765844  5234
STARLINK-35435          
1 66464U 25262J   25344.25002315  .00115842  00000+0  27500-2 0  9995
2 66464  43.0006  85.7426 0001956 279.6322 173.0154 15.40573446  5235
STARLINK-35448          
1 66465U 25262K   25344.25002315 -.02019235  00000+0 -46701-1 0  9992
2 66465  43.0001  85.6721 0001470 280.8170 201.1108 15.45153357  5236
STARLINK-35388          
1 66466U 25262L   25344.25002315 -.02025675  00000+0 -44745-1 0  9994
2 66466  43.0006  85.6538 0001350 270.5263 218.3665 15.46489718  5236
STARLINK-35682          
1 66467U 25262M   25344.25002315 -.01989429  00000+0 -48075-1 0  9990
2 66467  43.0007  85.6915 0001131 289.1654 184.3718 15.43828785  5233
STARLINK-35331          
1 66468U 25262N   25343.77458180 -.00126691  00000+0 -22109-2 0  9996
2 66468  43.0010  88.4141 0001050 308.1089  51.9676 15.50297909  5108
STARLINK-35451          
1 66469U 25262P   25344.22441394  .00139330  00000+0  23349-2 0  9996
2 66469  43.0001  85.7677 0002044 263.9440  96.1188 15.50624864  5176
STARLINK-35655          
1 66470U 25262Q   25344.28969293  .00184365  00000+0  31300-2 0  9991
2 66470  42.9996  85.3987 0005450 215.4845 144.5653 15.50068390  5186
STARLINK-35569          
1 66471U 25262R   25344.22475753  .00196807  00000+0  32696-2 0  9992
2 66471  43.0003  85.7711 0002540 267.4022  92.6547 15.50640903  5178
STARLINK-35567          
1 66472U 25262S   25344.28848341  .00152265  00000+0  25445-2 0  9990
2 66472  43.0000  85.3879 0001979 260.6566  99.4070 15.50651919  5186
STARLINK-35568          
1 66473U 25262T   25344.28813915  .00169349  00000+0  28221-2 0  9996
2 66473  43.0001  85.3848 0002041 252.2710 107.7928 15.50661869  5183
